start=new Date('2023-04-23T00:00:00.000Z').valueOf();
sats=[{"MEAN_MOTION":"15.02540781","FILE":"3891755","MEAN_MOTION_DOT":"0.00001638","PERIOD":"95.838","COUNTRY_CODE":"US","REV_AT_EPOCH":"1361","EPHEMERIS_TYPE":"0","REF_FRAME":"TEME","GP_ID":"230532809","TLE_LINE2":"2 55384  43.0021 274.0013 0001658 272.5873  87.4779 15.02540781 13614","OBJECT_NAME":"STARLINK-5537","SEMIMAJOR_AXIS":"6937.202","TLE_LINE1":"1 55384U 23013BF  23111.81387126  .00001638  00000-0  13632-3 0  9994","ELEMENT_SET_NO":"999","OBJECT_TYPE":"PAYLOAD","LAUNCH_DATE":"2023-01-26","CENTER_NAME":"EARTH","APOAPSIS":"560.217","TIME_SYSTEM":"UTC","EPOCH":"2023-04-21T19:31:58.476864","RA_OF_ASC_NODE":"274.0013","PERIAPSIS":"557.917","OBJECT_ID":"2023-013BF","RCS_SIZE":"LARGE","MEAN_MOTION_DDOT":"0.0000000000000","ECCENTRICITY":"0.00016580","DECAY_DATE":null,"NORAD_CAT_ID":"55384","INCLINATION":"43.0021","CLASSIFICATION_TYPE":"U","ARG_OF_PERICENTER":"272.5873","BSTAR":"0.00013632000000","SITE":"AFETR","MEAN_ELEMENT_THEORY":"SGP4","MEAN_ANOMALY":"87.4779"},{"TLE_LINE2":"2 55385  43.0016 268.8422 0001561 278.9198  81.1467 15.02544172 13328","GP_ID":"230598482","REF_FRAME":"TEME","REV_AT_EPOCH":"1332","EPHEMERIS_TYPE":"0","COUNTRY_CODE":"US","MEAN_MOTION_DOT":"0.00002652","PERIOD":"95.837","FILE":"3892285","MEAN_MOTION":"15.02544172","LAUNCH_DATE":"2023-01-26","CENTER_NAME":"EARTH","OBJECT_TYPE":"PAYLOAD","ELEMENT_SET_NO":"999","TLE_LINE1":"1 55385U 23013BG  23112.73123852  .00002652  00000-0  21130-3 0  9990","SEMIMAJOR_AXIS":"6937.191","OBJECT_NAME":"STARLINK-5556","MEAN_MOTION_DDOT":"0.0000000000000","RCS_SIZE":"LARGE","OBJECT_ID":"2023-013BG","PERIAPSIS":"557.973","EPOCH":"2023-04-22T17:32:59.008128","RA_OF_ASC_NODE":"268.8422","APOAPSIS":"560.139","TIME_SYSTEM":"UTC","MEAN_ANOMALY":"81.1467","MEAN_ELEMENT_THEORY":"SGP4","SITE":"AFETR","BSTAR":"0.00021130000000","ARG_OF_PERICENTER":"278.9198","CLASSIFICATION_TYPE":"U","NORAD_CAT_ID":"55385","DECAY_DATE":null,"INCLINATION":"43.0016","ECCENTRICITY":"0.00015610"},{"MEAN_MOTION":"15.02541308","FILE":"3892285","MEAN_MOTION_DOT":"0.00001925","PERIOD":"95.838","COUNTRY_CODE":"US","EPHEMERIS_TYPE":"0","REV_AT_EPOCH":"1332","REF_FRAME":"TEME","TLE_LINE2":"2 55386  43.0015 268.8678 0001439 273.7979  86.2699 15.02541308 13326","GP_ID":"230597230","OBJECT_NAME":"STARLINK-5555","SEMIMAJOR_AXIS":"6937.200","TLE_LINE1":"1 55386U 23013BH  23112.73456921  .00001925  00000-0  15754-3 0  9994","ELEMENT_SET_NO":"999","OBJECT_TYPE":"PAYLOAD","LAUNCH_DATE":"2023-01-26","CENTER_NAME":"EARTH","TIME_SYSTEM":"UTC","APOAPSIS":"560.063","RA_OF_ASC_NODE":"268.8678","EPOCH":"2023-04-22T17:37:46.779744","PERIAPSIS":"558.067","OBJECT_ID":"2023-013BH","RCS_SIZE":"LARGE","MEAN_MOTION_DDOT":"0.0000000000000","ECCENTRICITY":"0.00014390","DECAY_DATE":null,"NORAD_CAT_ID":"55386","INCLINATION":"43.0015","CLASSIFICATION_TYPE":"U","ARG_OF_PERICENTER":"273.7979","SITE":"AFETR","BSTAR":"0.00015754000000","MEAN_ELEMENT_THEORY":"SGP4","MEAN_ANOMALY":"86.2699"},{"EPOCH":"2023-04-22T17:28:08.685120","RA_OF_ASC_NODE":"221.8290","PERIAPSIS":"356.880","OBJECT_ID":"2023-014A","RCS_SIZE":"LARGE","MEAN_MOTION_DDOT":"0.0000000000000","TIME_SYSTEM":"UTC","APOAPSIS":"361.382","ARG_OF_PERICENTER":"264.0148","BSTAR":"0.00001136100000","SITE":"AFWTR","MEAN_ELEMENT_THEORY":"SGP4","MEAN_ANOMALY":"96.0667","ECCENTRICITY":"0.00033410","DECAY_DATE":null,"INCLINATION":"69.9983","NORAD_CAT_ID":"55391","CLASSIFICATION_TYPE":"U","REV_AT_EPOCH":"1386","EPHEMERIS_TYPE":"0","REF_FRAME":"TEME","GP_ID":"230597480","TLE_LINE2":"2 55391  69.9983 221.8290 0003341 264.0148  96.0667 15.69918984 13861","MEAN_MOTION":"15.69918984","FILE":"3892285","MEAN_MOTION_DOT":"0.00001153","PERIOD":"91.724","COUNTRY_CODE":"US","OBJECT_TYPE":"PAYLOAD","CENTER_NAME":"EARTH","LAUNCH_DATE":"2023-01-31","OBJECT_NAME":"STARLINK-5077","TLE_LINE1":"1 55391U 23014A   23112.72787830  .00001153  00000-0  11361-4 0  9990","SEMIMAJOR_AXIS":"6737.266","ELEMENT_SET_NO":"999"},{"ELEMENT_SET_NO":"999","SEMIMAJOR_AXIS":"6737.251","TLE_LINE1":"1 55392U 23014B   23112.40694672  .00001825  00000-0  16940-4 0  9991","OBJECT_NAME":"STARLINK-5085","LAUNCH_DATE":"2023-01-31","CENTER_NAME":"EARTH","OBJECT_TYPE":"PAYLOAD","PERIOD":"91.724","MEAN_MOTION_DOT":"0.00001825","COUNTRY_CODE":"US","FILE":"3892285","MEAN_MOTION":"15.69924326","TLE_LINE2":"2 55392  69.9993 222.7304 0002726 251.3485 108.7415 15.69924326 13812","GP_ID":"230598232","REF_FRAME":"TEME","REV_AT_EPOCH":"1381","EPHEMERIS_TYPE":"0","CLASSIFICATION_TYPE":"U","DECAY_DATE":null,"INCLINATION":"69.9993","NORAD_CAT_ID":"55392","ECCENTRICITY":"0.00027260","MEAN_ELEMENT_THEORY":"SGP4","MEAN_ANOMALY":"108.7415","BSTAR":"0.00001694000000","SITE":"AFWTR","ARG_OF_PERICENTER":"251.3485","TIME_SYSTEM":"UTC","APOAPSIS":"360.952","RCS_SIZE":"LARGE","MEAN_MOTION_DDOT":"0.0000000000000","OBJECT_ID":"2023-014B","EPOCH":"2023-04-22T09:46:00.196608","RA_OF_ASC_NODE":"222.7304","PERIAPSIS":"357.279"},{"GP_ID":"230597983","TLE_LINE2":"2 55393  70.0018 221.6517 0003352 261.1161  98.9655 15.69918726 13873","REF_FRAME":"TEME","REV_AT_EPOCH":"1387","EPHEMERIS_TYPE":"0","COUNTRY_CODE":"US","MEAN_MOTION_DOT":"-0.00000553","PERIOD":"91.724","FILE":"3892285","MEAN_MOTION":"15.69918726","LAUNCH_DATE":"2023-01-31","CENTER_NAME":"EARTH","OBJECT_TYPE":"PAYLOAD","ELEMENT_SET_NO":"999","TLE_LINE1":"1 55393U 23014C   23112.79180594 -.00000553  00000-0 -28275-5 0  9991","SEMIMAJOR_AXIS":"6737.267","OBJECT_NAME":"STARLINK-4786","MEAN_MOTION_DDOT":"0.0000000000000","RCS_SIZE":"LARGE","OBJECT_ID":"2023-014C","PERIAPSIS":"356.873","EPOCH":"2023-04-22T19:00:12.033216","RA_OF_ASC_NODE":"221.6517","TIME_SYSTEM":"UTC","APOAPSIS":"361.390","MEAN_ANOMALY":"98.9655","MEAN_ELEMENT_THEORY":"SGP4","BSTAR":"-0.00000282750000","SITE":"AFWTR","ARG_OF_PERICENTER":"261.1161","CLASSIFICATION_TYPE":"U","INCLINATION":"70.0018","DECAY_DATE":null,"NORAD_CAT_ID":"55393","ECCENTRICITY":"0.00033520"},{"OBJECT_ID":"2023-014D","MEAN_MOTION_DDOT":"0.0000000000000","RCS_SIZE":"LARGE","PERIAPSIS":"356.825","EPOCH":"2023-04-22T19:00:39.467808","RA_OF_ASC_NODE":"221.6502","APOAPSIS":"361.440","TIME_SYSTEM":"UTC","BSTAR":"0.00001140800000","SITE":"AFWTR","MEAN_ANOMALY":"90.7008","MEAN_ELEMENT_THEORY":"SGP4","ARG_OF_PERICENTER":"269.3795","CLASSIFICATION_TYPE":"U","ECCENTRICITY":"0.00034250","DECAY_DATE":null,"INCLINATION":"69.9969","NORAD_CAT_ID":"55394","REF_FRAME":"TEME","TLE_LINE2":"2 55394  69.9969 221.6502 0003425 269.3795  90.7008 15.69918513 13870","GP_ID":"230596731","EPHEMERIS_TYPE":"0","REV_AT_EPOCH":"1387","FILE":"3892285","COUNTRY_CODE":"US","PERIOD":"91.725","MEAN_MOTION_DOT":"0.00001159","MEAN_MOTION":"15.69918513","LAUNCH_DATE":"2023-01-31","CENTER_NAME":"EARTH","OBJECT_TYPE":"PAYLOAD","ELEMENT_SET_NO":"999","OBJECT_NAME":"STARLINK-5230","SEMIMAJOR_AXIS":"6737.267","TLE_LINE1":"1 55394U 23014D   23112.79212347  .00001159  00000-0  11408-4 0  9994"},{"ELEMENT_SET_NO":"999","OBJECT_NAME":"STARLINK-5274","SEMIMAJOR_AXIS":"6737.236","TLE_LINE1":"1 55395U 23014E   23112.40971125  .00003371  00000-0  29789-4 0  9998","CENTER_NAME":"EARTH","LAUNCH_DATE":"2023-01-31","OBJECT_TYPE":"PAYLOAD","FILE":"3892285","MEAN_MOTION_DOT":"0.00003371","PERIOD":"91.724","COUNTRY_CODE":"US","MEAN_MOTION":"15.69929236","REF_FRAME":"TEME","TLE_LINE2":"2 55395  70.0007 222.7255 0003720 263.8147  96.2625 15.69929236 13816","GP_ID":"230596981","REV_AT_EPOCH":"1381","EPHEMERIS_TYPE":"0","CLASSIFICATION_TYPE":"U","ECCENTRICITY":"0.00037200","DECAY_DATE":null,"INCLINATION":"70.0007","NORAD_CAT_ID":"55395","SITE":"AFWTR","BSTAR":"0.00002978900000","MEAN_ELEMENT_THEORY":"SGP4","MEAN_ANOMALY":"96.2625","ARG_OF_PERICENTER":"263.8147","TIME_SYSTEM":"UTC","APOAPSIS":"361.608","OBJECT_ID":"2023-014E","RCS_SIZE":"LARGE","MEAN_MOTION_DDOT":"0.0000000000000","RA_OF_ASC_NODE":"222.7255","EPOCH":"2023-04-22T09:49:59.052000","PERIAPSIS":"356.595"},{"TIME_SYSTEM":"UTC","APOAPSIS":"361.612","OBJECT_ID":"2023-014F","RCS_SIZE":"LARGE","MEAN_MOTION_DDOT":"0.0000000000000","EPOCH":"2023-04-22T17:29:07.686816","RA_OF_ASC_NODE":"221.8285","PERIAPSIS":"355.411","CLASSIFICATION_TYPE":"U","ECCENTRICITY":"0.00046020","INCLINATION":"69.9980","DECAY_DATE":null,"NORAD_CAT_ID":"55396","SITE":"AFWTR","BSTAR":"0.00022237000000","MEAN_ELEMENT_THEORY":"SGP4","MEAN_ANOMALY":"79.9854","ARG_OF_PERICENTER":"280.0822","FILE":"3892285","PERIOD":"91.712","MEAN_MOTION_DOT":"0.00026853","COUNTRY_CODE":"US","MEAN_MOTION":"15.70135496","REF_FRAME":"TEME","GP_ID":"230597733","TLE_LINE2":"2 55396  69.9980 221.8285 0004602 280.0822  79.9854 15.70135496 13864","REV_AT_EPOCH":"1386","EPHEMERIS_TYPE":"0","ELEMENT_SET_NO":"999","OBJECT_NAME":"STARLINK-5283","TLE_LINE1":"1 55396U 23014F   23112.72856119  .00026853  00000-0  22237-3 0  9999","SEMIMAJOR_AXIS":"6736.646","LAUNCH_DATE":"2023-01-31","CENTER_NAME":"EARTH","OBJECT_TYPE":"PAYLOAD"},{"MEAN_MOTION":"15.69929160","MEAN_MOTION_DOT":"0.00000816","PERIOD":"91.724","COUNTRY_CODE":"US","FILE":"3892135","REV_AT_EPOCH":"1293","EPHEMERIS_TYPE":"0","TLE_LINE2":"2 55397  70.0002 221.6511 0003424 259.1382 100.9428 15.69929160 12938","GP_ID":"230568529","REF_FRAME":"TEME","TLE_LINE1":"1 55397U 23014G   23112.79190544  .00000816  00000-0  85514-5 0  9990","SEMIMAJOR_AXIS":"6737.237","OBJECT_NAME":"STARLINK-5224","ELEMENT_SET_NO":"999","OBJECT_TYPE":"PAYLOAD","CENTER_NAME":"EARTH","LAUNCH_DATE":"2023-01-31","TIME_SYSTEM":"UTC","APOAPSIS":"361.409","EPOCH":"2023-04-22T19:00:20.630016","RA_OF_ASC_NODE":"221.6511","PERIAPSIS":"356.795","RCS_SIZE":"LARGE","MEAN_MOTION_DDOT":"0.0000000000000","OBJECT_ID":"2023-014G","DECAY_DATE":null,"INCLINATION":"70.0002","NORAD_CAT_ID":"55397","ECCENTRICITY":"0.00034240","CLASSIFICATION_TYPE":"U","ARG_OF_PERICENTER":"259.1382","MEAN_ELEMENT_THEORY":"SGP4","MEAN_ANOMALY":"100.9428","BSTAR":"0.00000855140000","SITE":"AFWTR"}];
